COSMOS 2172             
1 21789U 91079A   26066.00636168 -.00000151  00000+0  00000+0 0  9999
2 21789  13.3277 341.0954 0004863 350.4859 179.3422  1.00260371 46337
ATLAS 2 CENTAUR R/B     
1 21804U 91083B   26065.63973874 -.00000062  00000+0  32781-2 0  9993
2 21804  17.4235 309.2047 7356962 223.9828  45.6351  1.91158743239261
IUS R/B(2)              
1 21807U 91080D   26064.87451220 -.00000072  00000+0  00000+0 0  9991
2 21807  13.5480 343.4678 0021659 346.0071  13.9358  1.01281230 24924
RADUGA 28               
1 21821U 91087A   26065.94430808  .00000127  00000+0  00000+0 0  9992
2 21821  13.4394 341.7942 0003500 199.2211 356.5142  1.00299968125292
IABS R/B                
1 21877U 92006C   26066.12164815 -.00000151  00000+0  00000+0 0  9996
2 21877   7.6203 322.1433 0654845 100.8143 266.5531  1.10786798 26746
METEOSAT-5 AKM          
1 21904U 91015E   26061.62002839 -.00000375  00000+0  00000+0 0  9991
2 21904  12.3496 339.0457 0157668 235.4043 123.1293  1.00148901115303
GORIZONT 25             
1 21922U 92017A   26065.41161603  .00000089  00000+0  00000+0 0  9991
2 21922  13.5941 343.3407 0024105 111.3699  79.5506  0.99847971123919
SL-12 R/B(2)            
1 21925U 92017D   26066.52475303  .00000024  00000+0  00000+0 0  9991
2 21925  13.1410 341.3180 0020734  62.8273 113.3646  1.01084514124280
TELECOM 2B              
1 21939U 92021A   26066.21358262 -.00000276  00000+0  00000+0 0  9991
2 21939  14.5115   4.4877 0009829  67.5271 120.3259  0.99511728116371
PALAPA B4               
1 21964U 92027A   26066.18316248 -.00000220  00000+0  00000+0 0  9998
2 21964  13.1376  18.0363 0003452 331.2788  38.4522  0.99952291 46170
DELTA 2 R/B(2)          
1 21966U 92027C   26066.03663010 -.00000150  00000+0  00000+0 0  9998
2 21966  22.2987 103.7715 6445023  28.8493 355.2482  2.05328771253675
INSAT-2A                
1 22027U 92041A   26066.03364403  .00000013  00000+0  00000+0 0  9994
2 22027  14.5149 352.6221 0010520 288.6030  75.3840  1.00220900123035
GORIZONT 26             
1 22041U 92043A   26065.72544876 -.00000321  00000+0  00000+0 0  9994
2 22041  13.8882 345.5187 0035588 272.5369 310.9863  0.99246713122452
OPTUS B1 R/B(STAR 63F)  
1 22089U 92054C   26065.55945864  .00000348  00000+0  11505-2 0  9994
2 22089  22.8989 246.7996 7250225 271.9717  14.1699  2.24563215270651
DELTA 2 R/B(2)          
1 22098U 92057C   26065.74658965 -.00000134  00000+0  00000+0 0  9990
2 22098  20.5325 324.7910 6747041  86.5497 351.7956  2.17554820266334
COSMOS 2209             
1 22112U 92059A   26065.07604122 -.00000254  00000+0  00000+0 0  9994
2 22112  13.6554 343.3932 0011802 337.7089 197.7353  1.00238979122582
SL-12 R/B(2)            
1 22115U 92059D   26065.07829456 -.00000239  00000+0  00000+0 0  9999
2 22115  13.8871 344.2300 0012677 329.7276 217.5344  0.99801312121256
