[{"OBJECT_NAME":"COSMOS 2172","OBJECT_ID":"1991-079A","EPOCH":"2026-03-07T00:09:09.649152","MEAN_MOTION":1.00260371,"ECCENTRICITY":0.00048635,"INCLINATION":13.3277,"RA_OF_ASC_NODE":341.0954,"ARG_OF_PERICENTER":350.4859,"MEAN_ANOMALY":179.3422,"EPHEMERIS_TYPE":0,"CLASSIFICATION_TYPE":"U","NORAD_CAT_ID":21789,"ELEMENT_SET_NO":999,"REV_AT_EPOCH":4633,"BSTAR":0,"MEAN_MOTION_DOT":-1.51e-6,"MEAN_MOTION_DDOT":0},{"OBJECT_NAME":"ATLAS 2 CENTAUR R/B","OBJECT_ID":"1991-083B","EPOCH":"2026-03-06T15:21:13.427136","MEAN_MOTION":1.91158743,"ECCENTRICITY":0.73569627,"INCLINATION":17.4235,"RA_OF_ASC_NODE":309.2047,"ARG_OF_PERICENTER":223.9828,"MEAN_ANOMALY":45.6351,"EPHEMERIS_TYPE":0,"CLASSIFICATION_TYPE":"U","NORAD_CAT_ID":21804,"ELEMENT_SET_NO":999,"REV_AT_EPOCH":23926,"BSTAR":0.0032781439,"MEAN_MOTION_DOT":-6.2e-7,"MEAN_MOTION_DDOT":0},{"OBJECT_NAME":"IUS R/B(2)","OBJECT_ID":"1991-080D","EPOCH":"2026-03-05T20:59:17.854080","MEAN_MOTION":1.0128123,"ECCENTRICITY":0.00216592,"INCLINATION":13.548,"RA_OF_ASC_NODE":343.4678,"ARG_OF_PERICENTER":346.0071,"MEAN_ANOMALY":13.9358,"EPHEMERIS_TYPE":0,"CLASSIFICATION_TYPE":"U","NORAD_CAT_ID":21807,"ELEMENT_SET_NO":999,"REV_AT_EPOCH":2492,"BSTAR":0,"MEAN_MOTION_DOT":-7.2e-7,"MEAN_MOTION_DDOT":0},{"OBJECT_NAME":"RADUGA 28","OBJECT_ID":"1991-087A","EPOCH":"2026-03-06T22:39:48.218112","MEAN_MOTION":1.00299968,"ECCENTRICITY":0.00035008,"INCLINATION":13.4394,"RA_OF_ASC_NODE":341.7942,"ARG_OF_PERICENTER":199.2211,"MEAN_ANOMALY":356.5142,"EPHEMERIS_TYPE":0,"CLASSIFICATION_TYPE":"U","NORAD_CAT_ID":21821,"ELEMENT_SET_NO":999,"REV_AT_EPOCH":12529,"BSTAR":0,"MEAN_MOTION_DOT":1.27e-6,"MEAN_MOTION_DDOT":0},{"OBJECT_NAME":"IABS R/B","OBJECT_ID":"1992-006C","EPOCH":"2026-03-07T02:55:10.400160","MEAN_MOTION":1.10786798,"ECCENTRICITY":0.06548457,"INCLINATION":7.6203,"RA_OF_ASC_NODE":322.1433,"ARG_OF_PERICENTER":100.8143,"MEAN_ANOMALY":266.5531,"EPHEMERIS_TYPE":0,"CLASSIFICATION_TYPE":"U","NORAD_CAT_ID":21877,"ELEMENT_SET_NO":999,"REV_AT_EPOCH":2674,"BSTAR":0,"MEAN_MOTION_DOT":-1.51e-6,"MEAN_MOTION_DDOT":0},{"OBJECT_NAME":"METEOSAT-5 AKM","OBJECT_ID":"1991-015E","EPOCH":"2026-03-02T14:52:50.452896","MEAN_MOTION":1.00148901,"ECCENTRICITY":0.0157668,"INCLINATION":12.3496,"RA_OF_ASC_NODE":339.0457,"ARG_OF_PERICENTER":235.4043,"MEAN_ANOMALY":123.1293,"EPHEMERIS_TYPE":0,"CLASSIFICATION_TYPE":"U","NORAD_CAT_ID":21904,"ELEMENT_SET_NO":999,"REV_AT_EPOCH":11530,"BSTAR":0,"MEAN_MOTION_DOT":-3.75e-6,"MEAN_MOTION_DDOT":0},{"OBJECT_NAME":"GORIZONT 25","OBJECT_ID":"1992-017A","EPOCH":"2026-03-06T09:52:43.624992","MEAN_MOTION":0.99847971,"ECCENTRICITY":0.00241058,"INCLINATION":13.5941,"RA_OF_ASC_NODE":343.3407,"ARG_OF_PERICENTER":111.3699,"MEAN_ANOMALY":79.5506,"EPHEMERIS_TYPE":0,"CLASSIFICATION_TYPE":"U","NORAD_CAT_ID":21922,"ELEMENT_SET_NO":999,"REV_AT_EPOCH":12391,"BSTAR":0,"MEAN_MOTION_DOT":8.9e-7,"MEAN_MOTION_DDOT":0},{"OBJECT_NAME":"SL-12 R/B(2)","OBJECT_ID":"1992-017D","EPOCH":"2026-03-07T12:35:38.661792","MEAN_MOTION":1.01084514,"ECCENTRICITY":0.00207345,"INCLINATION":13.141,"RA_OF_ASC_NODE":341.318,"ARG_OF_PERICENTER":62.8273,"MEAN_ANOMALY":113.3646,"EPHEMERIS_TYPE":0,"CLASSIFICATION_TYPE":"U","NORAD_CAT_ID":21925,"ELEMENT_SET_NO":999,"REV_AT_EPOCH":12428,"BSTAR":0,"MEAN_MOTION_DOT":2.4e-7,"MEAN_MOTION_DDOT":0},{"OBJECT_NAME":"TELECOM 2B","OBJECT_ID":"1992-021A","EPOCH":"2026-03-07T05:07:33.538368","MEAN_MOTION":0.99511728,"ECCENTRICITY":0.0009829,"INCLINATION":14.5115,"RA_OF_ASC_NODE":4.4877,"ARG_OF_PERICENTER":67.5271,"MEAN_ANOMALY":120.3259,"EPHEMERIS_TYPE":0,"CLASSIFICATION_TYPE":"U","NORAD_CAT_ID":21939,"ELEMENT_SET_NO":999,"REV_AT_EPOCH":11637,"BSTAR":0,"MEAN_MOTION_DOT":-2.76e-6,"MEAN_MOTION_DDOT":0},{"OBJECT_NAME":"PALAPA B4","OBJECT_ID":"1992-027A","EPOCH":"2026-03-07T04:23:45.238272","MEAN_MOTION":0.99952291,"ECCENTRICITY":0.0003452,"INCLINATION":13.1376,"RA_OF_ASC_NODE":18.0363,"ARG_OF_PERICENTER":331.2788,"MEAN_ANOMALY":38.4522,"EPHEMERIS_TYPE":0,"CLASSIFICATION_TYPE":"U","NORAD_CAT_ID":21964,"ELEMENT_SET_NO":999,"REV_AT_EPOCH":4617,"BSTAR":0,"MEAN_MOTION_DOT":-2.2e-6,"MEAN_MOTION_DDOT":0},{"OBJECT_NAME":"DELTA 2 R/B(2)","OBJECT_ID":"1992-027C","EPOCH":"2026-03-07T00:52:44.840640","MEAN_MOTION":2.05328771,"ECCENTRICITY":0.6445023,"INCLINATION":22.2987,"RA_OF_ASC_NODE":103.7715,"ARG_OF_PERICENTER":28.8493,"MEAN_ANOMALY":355.2482,"EPHEMERIS_TYPE":0,"CLASSIFICATION_TYPE":"U","NORAD_CAT_ID":21966,"ELEMENT_SET_NO":999,"REV_AT_EPOCH":25367,"BSTAR":0,"MEAN_MOTION_DOT":-1.5e-6,"MEAN_MOTION_DDOT":0},{"OBJECT_NAME":"INSAT-2A","OBJECT_ID":"1992-041A","EPOCH":"2026-03-07T00:48:26.844192","MEAN_MOTION":1.002209,"ECCENTRICITY":0.00105203,"INCLINATION":14.5149,"RA_OF_ASC_NODE":352.6221,"ARG_OF_PERICENTER":288.603,"MEAN_ANOMALY":75.384,"EPHEMERIS_TYPE":0,"CLASSIFICATION_TYPE":"U","NORAD_CAT_ID":22027,"ELEMENT_SET_NO":999,"REV_AT_EPOCH":12303,"BSTAR":0,"MEAN_MOTION_DOT":1.3e-7,"MEAN_MOTION_DDOT":0},{"OBJECT_NAME":"GORIZONT 26","OBJECT_ID":"1992-043A","EPOCH":"2026-03-06T17:24:38.772864","MEAN_MOTION":0.99246713,"ECCENTRICITY":0.00355887,"INCLINATION":13.8882,"RA_OF_ASC_NODE":345.5187,"ARG_OF_PERICENTER":272.5369,"MEAN_ANOMALY":310.9863,"EPHEMERIS_TYPE":0,"CLASSIFICATION_TYPE":"U","NORAD_CAT_ID":22041,"ELEMENT_SET_NO":999,"REV_AT_EPOCH":12245,"BSTAR":0,"MEAN_MOTION_DOT":-3.21e-6,"MEAN_MOTION_DDOT":0},{"OBJECT_NAME":"OPTUS B1 R/B(STAR 63F)","OBJECT_ID":"1992-054C","EPOCH":"2026-03-06T13:25:37.226496","MEAN_MOTION":2.24563215,"ECCENTRICITY":0.72502255,"INCLINATION":22.8989,"RA_OF_ASC_NODE":246.7996,"ARG_OF_PERICENTER":271.9717,"MEAN_ANOMALY":14.1699,"EPHEMERIS_TYPE":0,"CLASSIFICATION_TYPE":"U","NORAD_CAT_ID":22089,"ELEMENT_SET_NO":999,"REV_AT_EPOCH":27065,"BSTAR":0.0011505484,"MEAN_MOTION_DOT":3.48e-6,"MEAN_MOTION_DDOT":0},{"OBJECT_NAME":"DELTA 2 R/B(2)","OBJECT_ID":"1992-057C","EPOCH":"2026-03-06T17:55:05.345760","MEAN_MOTION":2.1755482,"ECCENTRICITY":0.67470413,"INCLINATION":20.5325,"RA_OF_ASC_NODE":324.791,"ARG_OF_PERICENTER":86.5497,"MEAN_ANOMALY":351.7956,"EPHEMERIS_TYPE":0,"CLASSIFICATION_TYPE":"U","NORAD_CAT_ID":22098,"ELEMENT_SET_NO":999,"REV_AT_EPOCH":26633,"BSTAR":0,"MEAN_MOTION_DOT":-1.34e-6,"MEAN_MOTION_DDOT":0},{"OBJECT_NAME":"COSMOS 2209","OBJECT_ID":"1992-059A","EPOCH":"2026-03-06T01:49:29.961408","MEAN_MOTION":1.00238979,"ECCENTRICITY":0.00118025,"INCLINATION":13.6554,"RA_OF_ASC_NODE":343.3932,"ARG_OF_PERICENTER":337.7089,"MEAN_ANOMALY":197.7353,"EPHEMERIS_TYPE":0,"CLASSIFICATION_TYPE":"U","NORAD_CAT_ID":22112,"ELEMENT_SET_NO":999,"REV_AT_EPOCH":12258,"BSTAR":0,"MEAN_MOTION_DOT":-2.54e-6,"MEAN_MOTION_DDOT":0},{"OBJECT_NAME":"SL-12 R/B(2)","OBJECT_ID":"1992-059D","EPOCH":"2026-03-06T01:52:44.649984","MEAN_MOTION":0.99801312,"ECCENTRICITY":0.0012677,"INCLINATION":13.8871,"RA_OF_ASC_NODE":344.23,"ARG_OF_PERICENTER":329.7276,"MEAN_ANOMALY":217.5344,"EPHEMERIS_TYPE":0,"CLASSIFICATION_TYPE":"U","NORAD_CAT_ID":22115,"ELEMENT_SET_NO":999,"REV_AT_EPOCH":12125,"BSTAR":0,"MEAN_MOTION_DOT":-2.39e-6,"MEAN_MOTION_DDOT":0}]
